{"type": "FeatureCollection", "features": [ {"type": "Feature", "properties": {"norad_id": 31244, "name": "FENGYUN 1C DEB", "group": "fengyun-1c-debris", "lat": -33.63971022098756, "lon": 54.11838003767274, "alt_km": 938.5589932166195, "timestamp": "2025-12-10T09:57:44.980540+00:00", "meta": {"OBJECT_NAME": "FENGYUN 1C DEB", "OBJECT_ID": "1999-025BMA", "EPOCH": "2025-12-07T22:21:36.542016", "MEAN_MOTION": 14.06237413, "ECCENTRICITY": 0.01023168, "INCLINATION": 99.037, "RA_OF_ASC_NODE": 45.5611, "ARG_OF_PERICENTER": 188.335, "MEAN_ANOMALY": 171.6122, "EPHEMERIS_TYPE": 0, "CLASSIFICATION_TYPE": "U", "NORAD_CAT_ID": 31244, "ELEMENT_SET_NO": 999, "REV_AT_EPOCH": 57572, "BSTAR": 0.00047777338, "MEAN_MOTION_DOT": 7.8e-06, "MEAN_MOTION_DDOT": 0}, "tle": {"line1": "1 31244U 99025BMA 25341.93167294  .00000780  00000+0  47777-3 0  9994", "line2": "2 31244  99.0370  45.5611 0102316 188.3350 171.6122 14.06237413575724"}}, "geometry": {"type": "Point", "coordinates": [54.11838003767274, -33.63971022098756]}}, {"type": "Feature", "properties": {"norad_id": 31247, "name": "FENGYUN 1C DEB", "group": "fengyun-1c-debris", "lat": -79.8461440472243, "lon": -14.614559889879347, "alt_km": 924.2343313042829, "timestamp": "2025-12-10T09:57:44.980550+00:00", "meta": {"OBJECT_NAME": "FENGYUN 1C DEB", "OBJECT_ID": "1999-025BMD", "EPOCH": "2025-12-09T15:45:05.285088", "MEAN_MOTION": 14.05104478, "ECCENTRICITY": 0.0058879, "INCLINATION": 99.3649, "RA_OF_ASC_NODE": 231.7367, "ARG_OF_PERICENTER": 70.879, "MEAN_ANOMALY": 319.2113, "EPHEMERIS_TYPE": 0, "CLASSIFICATION_TYPE": "U", "NORAD_CAT_ID": 31247, "ELEMENT_SET_NO": 999, "REV_AT_EPOCH": 95478, "BSTAR": 0.0014768, "MEAN_MOTION_DOT": 2.373e-05, "MEAN_MOTION_DDOT": 0}, "tle": {"line1": "1 31247U 99025BMD 25343.65631117  .00002373  00000+0  14768-2 0  9991", "line2": "2 31247  99.3649 231.7367 0058879  70.8790 319.2113 14.05104478954783"}}, "geometry": {"type": "Point", "coordinates": [-14.614559889879347, -79.8461440472243]}}, {"type": "Feature", "properties": {"norad_id": 31248, "name": "FENGYUN 1C DEB", "group": "fengyun-1c-debris", "lat": -40.97341185845959, "lon": -146.27744797688536, "alt_km": 933.2427600768233, "timestamp": "2025-12-10T09:57:44.980560+00:00", "meta": {"OBJECT_NAME": "FENGYUN 1C DEB", "OBJECT_ID": "1999-025BME", "EPOCH": "2025-12-07T16:06:33.791616", "MEAN_MOTION": 13.92771781, "ECCENTRICITY": 0.01096947, "INCLINATION": 99.2646, "RA_OF_ASC_NODE": 39.1273, "ARG_OF_PERICENTER": 325.2285, "MEAN_ANOMALY": 187.2095, "EPHEMERIS_TYPE": 0, "CLASSIFICATION_TYPE": "U", "NORAD_CAT_ID": 31248, "ELEMENT_SET_NO": 999, "REV_AT_EPOCH": 94753, "BSTAR": 0.00086996241, "MEAN_MOTION_DOT": 1.137e-05, "MEAN_MOTION_DDOT": 0}, "tle": {"line1": "1 31248U 99025BME 25341.67122444  .00001137  00000+0  86996-3 0  9990", "line2": "2 31248  99.2646  39.1273 0109694 325.2285 187.2095 13.92771781947533"}}, "geometry": {"type": "Point", "coordinates": [-146.27744797688536, -40.97341185845959]}}, {"type": "Feature", "properties": {"norad_id": 31250, "name": "FENGYUN 1C DEB", "group": "fengyun-1c-debris", "lat": -31.794724977799532, "lon": -160.12631365890954, "alt_km": 799.8297145870802, "timestamp": "2025-12-10T09:57:44.980570+00:00", "meta": {"OBJECT_NAME": "FENGYUN 1C DEB", "OBJECT_ID": "1999-025BMG", "EPOCH": "2025-12-08T20:27:35.538624", "MEAN_MOTION": 14.03062668, "ECCENTRICITY": 0.01337435, "INCLINATION": 98.3877, "RA_OF_ASC_NODE": 193.1852, "ARG_OF_PERICENTER": 308.9519, "MEAN_ANOMALY": 49.9792, "EPHEMERIS_TYPE": 0, "CLASSIFICATION_TYPE": "U", "NORAD_CAT_ID": 31250, "ELEMENT_SET_NO": 999, "REV_AT_EPOCH": 95463, "BSTAR": 0.0020656552, "MEAN_MOTION_DOT": 3.435e-05, "MEAN_MOTION_DDOT": 0}, "tle": {"line1": "1 31250U 99025BMG 25342.85249466  .00003435  00000+0  20657-2 0  9992", "line2": "2 31250  98.3877 193.1852 0133743 308.9519  49.9792 14.03062668954633"}}, "geometry": {"type": "Point", "coordinates": [-160.12631365890954, -31.794724977799532]}}, {"type": "Feature", "properties": {"norad_id": 31252, "name": "FENGYUN 1C DEB", "group": "fengyun-1c-debris", "lat": 70.40868892239864, "lon": -20.946123302891618, "alt_km": 792.6415097608933, "timestamp": "2025-12-10T09:57:44.980583+00:00", "meta": {"OBJECT_NAME": "FENGYUN 1C DEB", "OBJECT_ID": "1999-025BMJ", "EPOCH": "2025-12-09T18:36:37.216800", "MEAN_MOTION": 14.40160847, "ECCENTRICITY": 0.0213648, "INCLINATION": 98.3176, "RA_OF_ASC_NODE": 2.7018, "ARG_OF_PERICENTER": 181.1324, "MEAN_ANOMALY": 178.941, "EPHEMERIS_TYPE": 0, "CLASSIFICATION_TYPE": "U", "NORAD_CAT_ID": 31252, "ELEMENT_SET_NO": 999, "REV_AT_EPOCH": 97164, "BSTAR": 0.00063776, "MEAN_MOTION_DOT": 2.589e-05, "MEAN_MOTION_DDOT": 0}, "tle": {"line1": "1 31252U 99025BMJ 25343.77543075  .00002589  00000+0  63776-3 0  9998", "line2": "2 31252  98.3176   2.7018 0213648 181.1324 178.9410 14.40160847971643"}}, "geometry": {"type": "Point", "coordinates": [-20.946123302891618, 70.40868892239864]}}, {"type": "Feature", "properties": {"norad_id": 31253, "name": "FENGYUN 1C DEB", "group": "fengyun-1c-debris", "lat": 43.42589824301974, "lon": -121.85856301694677, "alt_km": 710.2637816490942, "timestamp": "2025-12-10T09:57:44.980593+00:00", "meta": {"OBJECT_NAME": "FENGYUN 1C DEB", "OBJECT_ID": "1999-025BMK", "EPOCH": "2025-12-06T11:14:47.770080", "MEAN_MOTION": 14.03588914, "ECCENTRICITY": 0.02905761, "INCLINATION": 99.0778, "RA_OF_ASC_NODE": 45.4929, "ARG_OF_PERICENTER": 108.2399, "MEAN_ANOMALY": 255.062, "EPHEMERIS_TYPE": 0, "CLASSIFICATION_TYPE": "U", "NORAD_CAT_ID": 31253, "ELEMENT_SET_NO": 999, "REV_AT_EPOCH": 68910, "BSTAR": 0.00074628636, "MEAN_MOTION_DOT": 1.659e-05, "MEAN_MOTION_DDOT": 0}, "tle": {"line1": "1 31253U 99025BMK 25340.46860845  .00001659  00000+0  74629-3 0  9995", "line2": "2 31253  99.0778  45.4929 0290576 108.2399 255.0620 14.03588914689107"}}, "geometry": {"type": "Point", "coordinates": [-121.85856301694677, 43.42589824301974]}}, {"type": "Feature", "properties": {"norad_id": 31254, "name": "FENGYUN 1C DEB", "group": "fengyun-1c-debris", "lat": -79.34769295681764, "lon": 86.48351321814121, "alt_km": 735.124377313774, "timestamp": "2025-12-10T09:57:44.980603+00:00", "meta": {"OBJECT_NAME": "FENGYUN 1C DEB", "OBJECT_ID": "1999-025BML", "EPOCH": "2025-11-27T22:14:27.134880", "MEAN_MOTION": 14.36276197, "ECCENTRICITY": 0.0150752, "INCLINATION": 98.4636, "RA_OF_ASC_NODE": 21.8734, "ARG_OF_PERICENTER": 246.3529, "MEAN_ANOMALY": 292.2282, "EPHEMERIS_TYPE": 0, "CLASSIFICATION_TYPE": "U", "NORAD_CAT_ID": 31254, "ELEMENT_SET_NO": 999, "REV_AT_EPOCH": 97303, "BSTAR": 0.00058845, "MEAN_MOTION_DOT": 1.909e-05, "MEAN_MOTION_DDOT": 0}, "tle": {"line1": "1 31254U 99025BML 25331.92670295  .00001909  00000+0  58845-3 0  9995", "line2": "2 31254  98.4636  21.8734 0150752 246.3529 292.2282 14.36276197973034"}}, "geometry": {"type": "Point", "coordinates": [86.48351321814121, -79.34769295681764]}}, {"type": "Feature", "properties": {"norad_id": 31255, "name": "FENGYUN 1C DEB", "group": "fengyun-1c-debris", "lat": 58.54954499826001, "lon": 145.86040667616746, "alt_km": 782.5293619409922, "timestamp": "2025-12-10T09:57:44.980613+00:00", "meta": {"OBJECT_NAME": "FENGYUN 1C DEB", "OBJECT_ID": "1999-025BMM", "EPOCH": "2025-12-07T05:02:24.538272", "MEAN_MOTION": 14.09717215, "ECCENTRICITY": 0.02708719, "INCLINATION": 99.3085, "RA_OF_ASC_NODE": 158.0982, "ARG_OF_PERICENTER": 358.9122, "MEAN_ANOMALY": 1.1426, "EPHEMERIS_TYPE": 0, "CLASSIFICATION_TYPE": "U", "NORAD_CAT_ID": 31255, "ELEMENT_SET_NO": 999, "REV_AT_EPOCH": 96723, "BSTAR": 0.00045625393, "MEAN_MOTION_DOT": 1.074e-05, "MEAN_MOTION_DDOT": 0}, "tle": {"line1": "1 31255U 99025BMM 25341.21000623  .00001074  00000+0  45625-3 0  9996", "line2": "2 31255  99.3085 158.0982 0270871 358.9122   1.1426 14.09717215967238"}}, "geometry": {"type": "Point", "coordinates": [145.86040667616746, 58.54954499826001]}}, {"type": "Feature", "properties": {"norad_id": 31256, "name": "FENGYUN 1C DEB", "group": "fengyun-1c-debris", "lat": -21.95237357314658, "lon": -164.29283837411202, "alt_km": 1063.2519605564048, "timestamp": "2025-12-10T09:57:44.980624+00:00", "meta": {"OBJECT_NAME": "FENGYUN 1C DEB", "OBJECT_ID": "1999-025BMN", "EPOCH": "2025-12-09T08:24:09.242208", "MEAN_MOTION": 14.03219091, "ECCENTRICITY": 0.03083808, "INCLINATION": 98.6817, "RA_OF_ASC_NODE": 191.1584, "ARG_OF_PERICENTER": 123.5206, "MEAN_ANOMALY": 239.5828, "EPHEMERIS_TYPE": 0, "CLASSIFICATION_TYPE": "U", "NORAD_CAT_ID": 31256, "ELEMENT_SET_NO": 999, "REV_AT_EPOCH": 64934, "BSTAR": 0.00371264, "MEAN_MOTION_DOT": 8.789e-05, "MEAN_MOTION_DDOT": 0}, "tle": {"line1": "1 31256U 99025BMN 25343.35010697  .00008789  00000+0  37126-2 0  9992", "line2": "2 31256  98.6817 191.1584 0308380 123.5206 239.5828 14.03219091649341"}}, "geometry": {"type": "Point", "coordinates": [-164.29283837411202, -21.95237357314658]}}, {"type": "Feature", "properties": {"norad_id": 31258, "name": "FENGYUN 1C DEB", "group": "fengyun-1c-debris", "lat": -79.55697409915649, "lon": -104.77148320386324, "alt_km": 536.335612972387, "timestamp": "2025-12-10T09:57:44.980634+00:00", "meta": {"OBJECT_NAME": "FENGYUN 1C DEB", "OBJECT_ID": "1999-025BMQ", "EPOCH": "2025-12-09T09:11:55.224384", "MEAN_MOTION": 15.11060153, "ECCENTRICITY": 0.0004273, "INCLINATION": 98.8493, "RA_OF_ASC_NODE": 131.7395, "ARG_OF_PERICENTER": 296.4738, "MEAN_ANOMALY": 117.6618, "EPHEMERIS_TYPE": 0, "CLASSIFICATION_TYPE": "U", "NORAD_CAT_ID": 31258, "ELEMENT_SET_NO": 999, "REV_AT_EPOCH": 97060, "BSTAR": 0.012371053, "MEAN_MOTION_DOT": 0.00213033, "MEAN_MOTION_DDOT": 0}, "tle": {"line1": "1 31258U 99025BMQ 25343.38327806  .00213033  00000+0  12371-1 0  9994", "line2": "2 31258  98.8493 131.7395 0004273 296.4738 117.6618 15.11060153970601"}}, "geometry": {"type": "Point", "coordinates": [-104.77148320386324, -79.55697409915649]}}]}